[{"OBJECT_NAME":"STARLINK-31089","OBJECT_ID":"2023-200X","EPOCH":"2025-10-03T02:26:20.891616","MEAN_MOTION":15.02544206,"ECCENTRICITY":0.00013292,"INCLINATION":43.0036,"RA_OF_ASC_NODE":306.9405,"ARG_OF_PERICENTER":261.6976,"MEAN_ANOMALY":98.3715,"EPHEMERIS_TYPE":0,"CLASSIFICATION_TYPE":"U","NORAD_CAT_ID":58610,"ELEMENT_SET_NO":999,"REV_AT_EPOCH":9988,"BSTAR":0.00031335013,"MEAN_MOTION_DOT":4.033e-5,"MEAN_MOTION_DDOT":0},{"OBJECT_NAME":"STARLINK-31061","OBJECT_ID":"2023-200Y","EPOCH":"2025-10-03T02:35:47.239296","MEAN_MOTION":15.02539069,"ECCENTRICITY":0.00013418,"INCLINATION":43.0031,"RA_OF_ASC_NODE":306.188,"ARG_OF_PERICENTER":261.9355,"MEAN_ANOMALY":98.1336,"EPHEMERIS_TYPE":0,"CLASSIFICATION_TYPE":"U","NORAD_CAT_ID":58611,"ELEMENT_SET_NO":999,"REV_AT_EPOCH":9989,"BSTAR":0.00061942179,"MEAN_MOTION_DOT":8.174e-5,"MEAN_MOTION_DDOT":0},{"OBJECT_NAME":"STARLINK-31054","OBJECT_ID":"2023-203B","EPOCH":"2025-10-03T06:21:19.222848","MEAN_MOTION":15.2760307,"ECCENTRICITY":5.053e-5,"INCLINATION":42.9987,"RA_OF_ASC_NODE":236.2884,"ARG_OF_PERICENTER":244.9932,"MEAN_ANOMALY":115.0867,"EPHEMERIS_TYPE":0,"CLASSIFICATION_TYPE":"U","NORAD_CAT_ID":58619,"ELEMENT_SET_NO":999,"REV_AT_EPOCH":9948,"BSTAR":-6.9481337e-5,"MEAN_MOTION_DOT":-2.174e-5,"MEAN_MOTION_DDOT":0},{"OBJECT_NAME":"STARLINK-31134","OBJECT_ID":"2023-203D","EPOCH":"2025-10-02T23:02:00.488832","MEAN_MOTION":15.27579576,"ECCENTRICITY":0.00011651,"INCLINATION":43.0001,"RA_OF_ASC_NODE":238.2994,"ARG_OF_PERICENTER":236.337,"MEAN_ANOMALY":123.7371,"EPHEMERIS_TYPE":0,"CLASSIFICATION_TYPE":"U","NORAD_CAT_ID":58621,"ELEMENT_SET_NO":999,"REV_AT_EPOCH":9943,"BSTAR":0.00025114509,"MEAN_MOTION_DOT":6.655e-5,"MEAN_MOTION_DDOT":0},{"OBJECT_NAME":"STARLINK-31133","OBJECT_ID":"2023-203E","EPOCH":"2025-10-03T06:15:47.490048","MEAN_MOTION":15.27556989,"ECCENTRICITY":7.345e-5,"INCLINATION":43.002,"RA_OF_ASC_NODE":236.2574,"ARG_OF_PERICENTER":294.5495,"MEAN_ANOMALY":65.528,"EPHEMERIS_TYPE":0,"CLASSIFICATION_TYPE":"U","NORAD_CAT_ID":58622,"ELEMENT_SET_NO":999,"REV_AT_EPOCH":9948,"BSTAR":-8.695968e-6,"MEAN_MOTION_DOT":-5.01e-6,"MEAN_MOTION_DDOT":0},{"OBJECT_NAME":"STARLINK-31068","OBJECT_ID":"2023-203F","EPOCH":"2025-10-03T06:10:13.622304","MEAN_MOTION":15.27591639,"ECCENTRICITY":7.174e-5,"INCLINATION":42.9968,"RA_OF_ASC_NODE":236.2279,"ARG_OF_PERICENTER":274.4744,"MEAN_ANOMALY":85.6025,"EPHEMERIS_TYPE":0,"CLASSIFICATION_TYPE":"U","NORAD_CAT_ID":58623,"ELEMENT_SET_NO":999,"REV_AT_EPOCH":9948,"BSTAR":0.00046153364,"MEAN_MOTION_DOT":0.00012464,"MEAN_MOTION_DDOT":0},{"OBJECT_NAME":"STARLINK-31129","OBJECT_ID":"2023-203G","EPOCH":"2025-10-03T06:06:31.398912","MEAN_MOTION":15.27585156,"ECCENTRICITY":0.00013254,"INCLINATION":43,"RA_OF_ASC_NODE":236.208,"ARG_OF_PERICENTER":259.5572,"MEAN_ANOMALY":100.513,"EPHEMERIS_TYPE":0,"CLASSIFICATION_TYPE":"U","NORAD_CAT_ID":58624,"ELEMENT_SET_NO":999,"REV_AT_EPOCH":9948,"BSTAR":0.0001826127,"MEAN_MOTION_DOT":4.767e-5,"MEAN_MOTION_DDOT":0},{"OBJECT_NAME":"STARLINK-30774","OBJECT_ID":"2023-203H","EPOCH":"2025-10-03T06:00:58.466016","MEAN_MOTION":15.2758539,"ECCENTRICITY":3.344e-5,"INCLINATION":42.9969,"RA_OF_ASC_NODE":236.1773,"ARG_OF_PERICENTER":214.7141,"MEAN_ANOMALY":145.3689,"EPHEMERIS_TYPE":0,"CLASSIFICATION_TYPE":"U","NORAD_CAT_ID":58625,"ELEMENT_SET_NO":999,"REV_AT_EPOCH":9948,"BSTAR":0.00015706328,"MEAN_MOTION_DOT":4.063e-5,"MEAN_MOTION_DDOT":0},{"OBJECT_NAME":"STARLINK-31086","OBJECT_ID":"2023-203J","EPOCH":"2025-10-03T02:15:39.184992","MEAN_MOTION":15.27580999,"ECCENTRICITY":0.00012303,"INCLINATION":43.0004,"RA_OF_ASC_NODE":236.726,"ARG_OF_PERICENTER":210.2553,"MEAN_ANOMALY":149.8228,"EPHEMERIS_TYPE":0,"CLASSIFICATION_TYPE":"U","NORAD_CAT_ID":58626,"ELEMENT_SET_NO":999,"REV_AT_EPOCH":9946,"BSTAR":5.682847e-5,"MEAN_MOTION_DOT":1.302e-5,"MEAN_MOTION_DDOT":0},{"OBJECT_NAME":"STARLINK-31065","OBJECT_ID":"2023-203K","EPOCH":"2025-10-03T07:14:46.951584","MEAN_MOTION":15.27584948,"ECCENTRICITY":8.255e-5,"INCLINATION":43.0014,"RA_OF_ASC_NODE":235.7167,"ARG_OF_PERICENTER":281.1357,"MEAN_ANOMALY":78.9402,"EPHEMERIS_TYPE":0,"CLASSIFICATION_TYPE":"U","NORAD_CAT_ID":58627,"ELEMENT_SET_NO":999,"REV_AT_EPOCH":9949,"BSTAR":0.00028687787,"MEAN_MOTION_DOT":7.642e-5,"MEAN_MOTION_DDOT":0},{"OBJECT_NAME":"STARLINK-31092","OBJECT_ID":"2023-203L","EPOCH":"2025-10-03T05:55:26.380704","MEAN_MOTION":15.27577075,"ECCENTRICITY":0.00012373,"INCLINATION":42.9983,"RA_OF_ASC_NODE":236.1488,"ARG_OF_PERICENTER":247.1245,"MEAN_ANOMALY":112.9476,"EPHEMERIS_TYPE":0,"CLASSIFICATION_TYPE":"U","NORAD_CAT_ID":58628,"ELEMENT_SET_NO":999,"REV_AT_EPOCH":9948,"BSTAR":0.00019492993,"MEAN_MOTION_DOT":5.105e-5,"MEAN_MOTION_DDOT":0},{"OBJECT_NAME":"STARLINK-31091","OBJECT_ID":"2023-203M","EPOCH":"2025-10-03T05:47:51.759456","MEAN_MOTION":15.25919157,"ECCENTRICITY":0.00015127,"INCLINATION":43.0024,"RA_OF_ASC_NODE":239.5625,"ARG_OF_PERICENTER":274.3942,"MEAN_ANOMALY":85.6736,"EPHEMERIS_TYPE":0,"CLASSIFICATION_TYPE":"U","NORAD_CAT_ID":58629,"ELEMENT_SET_NO":999,"REV_AT_EPOCH":9944,"BSTAR":1.854241e-5,"MEAN_MOTION_DOT":2.28e-6,"MEAN_MOTION_DDOT":0},{"OBJECT_NAME":"STARLINK-31084","OBJECT_ID":"2023-203N","EPOCH":"2025-10-03T05:44:36.199104","MEAN_MOTION":15.25916421,"ECCENTRICITY":0.00017726,"INCLINATION":43.0022,"RA_OF_ASC_NODE":239.5429,"ARG_OF_PERICENTER":257.8996,"MEAN_ANOMALY":102.1656,"EPHEMERIS_TYPE":0,"CLASSIFICATION_TYPE":"U","NORAD_CAT_ID":58630,"ELEMENT_SET_NO":999,"REV_AT_EPOCH":9944,"BSTAR":0.00013588517,"MEAN_MOTION_DOT":3.299e-5,"MEAN_MOTION_DDOT":0},{"OBJECT_NAME":"STARLINK-31064","OBJECT_ID":"2023-203P","EPOCH":"2025-10-03T07:12:21.576672","MEAN_MOTION":15.25899593,"ECCENTRICITY":0.0001692,"INCLINATION":43.0017,"RA_OF_ASC_NODE":239.1394,"ARG_OF_PERICENTER":265.1905,"MEAN_ANOMALY":94.8753,"EPHEMERIS_TYPE":0,"CLASSIFICATION_TYPE":"U","NORAD_CAT_ID":58631,"ELEMENT_SET_NO":999,"REV_AT_EPOCH":10062,"BSTAR":8.200272e-6,"MEAN_MOTION_DOT":-4.3e-7,"MEAN_MOTION_DDOT":0},{"OBJECT_NAME":"STARLINK-31081","OBJECT_ID":"2023-203Q","EPOCH":"2025-10-02T04:26:37.046400","MEAN_MOTION":15.25961368,"ECCENTRICITY":0.0001143,"INCLINATION":43.0021,"RA_OF_ASC_NODE":245.3878,"ARG_OF_PERICENTER":245.6899,"MEAN_ANOMALY":114.3833,"EPHEMERIS_TYPE":0,"CLASSIFICATION_TYPE":"U","NORAD_CAT_ID":58632,"ELEMENT_SET_NO":999,"REV_AT_EPOCH":10051,"BSTAR":0.00022892304,"MEAN_MOTION_DOT":5.745e-5,"MEAN_MOTION_DDOT":0},{"OBJECT_NAME":"STARLINK-31022","OBJECT_ID":"2023-203R","EPOCH":"2025-10-03T07:15:35.057376","MEAN_MOTION":15.25938356,"ECCENTRICITY":0.00013829,"INCLINATION":43.0018,"RA_OF_ASC_NODE":239.1557,"ARG_OF_PERICENTER":268.8028,"MEAN_ANOMALY":91.2664,"EPHEMERIS_TYPE":0,"CLASSIFICATION_TYPE":"U","NORAD_CAT_ID":58633,"ELEMENT_SET_NO":999,"REV_AT_EPOCH":10068,"BSTAR":9.8588955e-5,"MEAN_MOTION_DOT":2.324e-5,"MEAN_MOTION_DDOT":0}]
