STARLINK-31089          
1 58610U 23200X   25276.10163069  .00004033  00000+0  31335-3 0  9992
2 58610  43.0036 306.9405 0001329 261.6976  98.3715 15.02544206 99883
STARLINK-31061          
1 58611U 23200Y   25276.10818564  .00008174  00000+0  61942-3 0  9997
2 58611  43.0031 306.1880 0001341 261.9355  98.1336 15.02539069 99895
STARLINK-31054          
1 58619U 23203B   25276.26480582 -.00002174  00000+0 -69481-4 0  9993
2 58619  42.9987 236.2884 0000505 244.9932 115.0867 15.27603070 99485
STARLINK-31134          
1 58621U 23203D   25275.95972788  .00006655  00000+0  25115-3 0  9996
2 58621  43.0001 238.2994 0001165 236.3370 123.7371 15.27579576 99439
STARLINK-31133          
1 58622U 23203E   25276.26096632 -.00000501  00000+0 -86960-5 0  9990
2 58622  43.0020 236.2574 0000734 294.5495  65.5280 15.27556989 99488
STARLINK-31068          
1 58623U 23203F   25276.25710211  .00012464  00000+0  46153-3 0  9993
2 58623  42.9968 236.2279 0000717 274.4744  85.6025 15.27591639 99486
STARLINK-31129          
1 58624U 23203G   25276.25453008  .00004767  00000+0  18261-3 0  9998
2 58624  43.0000 236.2080 0001325 259.5572 100.5130 15.27585156 99486
STARLINK-30774          
1 58625U 23203H   25276.25067669  .00004063  00000+0  15706-3 0  9993
2 58625  42.9969 236.1773 0000334 214.7141 145.3689 15.27585390 99487
STARLINK-31086          
1 58626U 23203J   25276.09420353  .00001302  00000+0  56828-4 0  9993
2 58626  43.0004 236.7260 0001230 210.2553 149.8228 15.27580999 99467
STARLINK-31065          
1 58627U 23203K   25276.30193231  .00007642  00000+0  28688-3 0  9995
2 58627  43.0014 235.7167 0000825 281.1357  78.9402 15.27584948 99499
STARLINK-31092          
1 58628U 23203L   25276.24683311  .00005105  00000+0  19493-3 0  9998
2 58628  42.9983 236.1488 0001237 247.1245 112.9476 15.27577075 99482
STARLINK-31091          
1 58629U 23203M   25276.24157129  .00000228  00000+0  18542-4 0  9998
2 58629  43.0024 239.5625 0001512 274.3942  85.6736 15.25919157 99443
STARLINK-31084          
1 58630U 23203N   25276.23930786  .00003299  00000+0  13589-3 0  9993
2 58630  43.0022 239.5429 0001772 257.8996 102.1656 15.25916421 99445
STARLINK-31064          
1 58631U 23203P   25276.30024973 -.00000043  00000+0  82003-5 0  9998
2 58631  43.0017 239.1394 0001692 265.1905  94.8753 15.25899593100628
STARLINK-31081          
1 58632U 23203Q   25275.18515100  .00005745  00000+0  22892-3 0  9992
2 58632  43.0021 245.3878 0001143 245.6899 114.3833 15.25961368100511
STARLINK-31022          
1 58633U 23203R   25276.30248909  .00002324  00000+0  98589-4 0  9995
2 58633  43.0018 239.1557 0001382 268.8028  91.2664 15.25938356100683
